[{"OBJECT_NAME":"STARLINK-34507","OBJECT_ID":"2025-129AB","EPOCH":"2026-03-09T23:29:09.257568","MEAN_MOTION":14.98355595,"ECCENTRICITY":0.0002128,"INCLINATION":70,"RA_OF_ASC_NODE":73.6013,"ARG_OF_PERICENTER":228.6362,"MEAN_ANOMALY":131.4614,"EPHEMERIS_TYPE":0,"CLASSIFICATION_TYPE":"U","NORAD_CAT_ID":64437,"ELEMENT_SET_NO":999,"REV_AT_EPOCH":4133,"BSTAR":0.00029522686,"MEAN_MOTION_DOT":3.434e-5,"MEAN_MOTION_DDOT":0},{"OBJECT_NAME":"CZ-2D DEB","OBJECT_ID":"2018-048E","EPOCH":"2026-03-09T22:09:24.485184","MEAN_MOTION":14.95292309,"ECCENTRICITY":0.00245463,"INCLINATION":98.262,"RA_OF_ASC_NODE":231.1035,"ARG_OF_PERICENTER":114.5757,"MEAN_ANOMALY":245.8024,"EPHEMERIS_TYPE":0,"CLASSIFICATION_TYPE":"U","NORAD_CAT_ID":43490,"ELEMENT_SET_NO":999,"REV_AT_EPOCH":41934,"BSTAR":0.00070357513,"MEAN_MOTION_DOT":7.737e-5,"MEAN_MOTION_DDOT":0}]
